GLOBALSTAR M084 [+]     
1 38040U 11080A   23282.87049771 -.00000076  00000+0  15338-3 0  9991
2 38040  51.9986 124.7679 0001060  95.2980   6.3854 12.62266742544839
GLOBALSTAR M080 [+]     
1 38041U 11080B   23282.93299454 -.00000076  00000+0  15593-3 0  9997
2 38041  52.0036 125.9674 0001261  90.0400  56.0761 12.62265319544961
GLOBALSTAR M082 [+]     
1 38042U 11080C   23282.95253670 -.00000086  00000+0  99104-4 0  9992
2 38042  52.0069  81.2855 0000222  78.4784  97.2584 12.62271578545677
GLOBALSTAR M092 [+]     
1 38043U 11080D   23282.90516696 -.00000095  00000+0  47632-4 0  9997
2 38043  52.0071 171.7758 0000890  98.2627 342.4732 12.62272727544121
GLOBALSTAR M090 [+]     
1 38044U 11080E   23282.72581706 -.00000100  00000+0  22808-4 0  9997
2 38044  51.9880  76.5778 0000594  80.2072  25.3380 12.62278105545761
GLOBALSTAR M086 [+]     
1 38045U 11080F   23282.92489420 -.00000086  00000+0  96967-4 0  9990
2 38045  51.9892  76.4750 0001521  60.5628 109.8939 12.62263226545736
GLOBALSTAR M097 [+]     
1 39072U 13005A   23282.51816633 -.00000083  00000+0  11460-3 0  9996
2 39072  52.0071 351.6389 0000410  57.8077 302.2830 12.62270904492930
GLOBALSTAR M093 [+]     
1 39073U 13005B   23282.57079923 -.00000075  00000+0  16250-3 0  9999
2 39073  51.9833 345.7685 0000529  37.3881 322.7022 12.62267327492895
